SENTINEL-6              
1 46984U 20086A   24251.83597511 -.00000064  00000+0 -10743-4 0  9990
2 46984  66.0431  39.6062 0007784 269.3140  90.6984 12.80931301177537
